[{"OBJECT_NAME":"DUPLEX","OBJECT_ID":"1998-067XS","EPOCH":"2026-03-28T20:14:15.747648","MEAN_MOTION":15.57497317,"ECCENTRICITY":0.0002986,"INCLINATION":51.6303,"RA_OF_ASC_NODE":333.56,"ARG_OF_PERICENTER":199.9442,"MEAN_ANOMALY":160.1434,"EPHEMERIS_TYPE":0,"CLASSIFICATION_TYPE":"U","NORAD_CAT_ID":66906,"ELEMENT_SET_NO":999,"REV_AT_EPOCH":1811,"BSTAR":0.00044902,"MEAN_MOTION_DOT":0.0003331,"MEAN_MOTION_DDOT":0},{"OBJECT_NAME":"ISS OBJECT XT","OBJECT_ID":"1998-067XT","EPOCH":"2026-03-28T20:05:52.001088","MEAN_MOTION":15.76334274,"ECCENTRICITY":0.0005982,"INCLINATION":51.6244,"RA_OF_ASC_NODE":327.4843,"ARG_OF_PERICENTER":203.9944,"MEAN_ANOMALY":156.0778,"EPHEMERIS_TYPE":0,"CLASSIFICATION_TYPE":"U","NORAD_CAT_ID":66907,"ELEMENT_SET_NO":999,"REV_AT_EPOCH":1819,"BSTAR":0.0014424,"MEAN_MOTION_DOT":0.00238548,"MEAN_MOTION_DDOT":0},{"OBJECT_NAME":"ISS OBJECT XU","OBJECT_ID":"1998-067XU","EPOCH":"2026-03-28T01:44:58.661952","MEAN_MOTION":15.76216894,"ECCENTRICITY":0.00061326,"INCLINATION":51.6247,"RA_OF_ASC_NODE":331.3755,"ARG_OF_PERICENTER":198.784,"MEAN_ANOMALY":161.2934,"EPHEMERIS_TYPE":0,"CLASSIFICATION_TYPE":"U","NORAD_CAT_ID":66908,"ELEMENT_SET_NO":999,"REV_AT_EPOCH":1807,"BSTAR":0.0013700376,"MEAN_MOTION_DOT":0.00225038,"MEAN_MOTION_DDOT":0},{"OBJECT_NAME":"SILVERSAT","OBJECT_ID":"1998-067XV","EPOCH":"2026-03-28T20:24:54.324000","MEAN_MOTION":15.81874533,"ECCENTRICITY":0.0006994,"INCLINATION":51.622,"RA_OF_ASC_NODE":326.0553,"ARG_OF_PERICENTER":209.6822,"MEAN_ANOMALY":150.3784,"EPHEMERIS_TYPE":0,"CLASSIFICATION_TYPE":"U","NORAD_CAT_ID":66909,"ELEMENT_SET_NO":999,"REV_AT_EPOCH":1821,"BSTAR":0.0016717,"MEAN_MOTION_DOT":0.00360703,"MEAN_MOTION_DDOT":0},{"OBJECT_NAME":"ISS OBJECT XW","OBJECT_ID":"1998-067XW","EPOCH":"2026-03-28T20:16:08.243040","MEAN_MOTION":15.74880247,"ECCENTRICITY":0.0006302,"INCLINATION":51.6233,"RA_OF_ASC_NODE":327.5249,"ARG_OF_PERICENTER":201.535,"MEAN_ANOMALY":158.5385,"EPHEMERIS_TYPE":0,"CLASSIFICATION_TYPE":"U","NORAD_CAT_ID":66910,"ELEMENT_SET_NO":999,"REV_AT_EPOCH":1819,"BSTAR":0.0013129,"MEAN_MOTION_DOT":0.00202838,"MEAN_MOTION_DDOT":0},{"OBJECT_NAME":"ISS OBJECT XX","OBJECT_ID":"1998-067XX","EPOCH":"2026-03-28T00:53:28.224672","MEAN_MOTION":15.8765098,"ECCENTRICITY":0.00086921,"INCLINATION":51.6193,"RA_OF_ASC_NODE":328.8401,"ARG_OF_PERICENTER":208.4454,"MEAN_ANOMALY":151.6078,"EPHEMERIS_TYPE":0,"CLASSIFICATION_TYPE":"U","NORAD_CAT_ID":66911,"ELEMENT_SET_NO":999,"REV_AT_EPOCH":1809,"BSTAR":0.0016862247,"MEAN_MOTION_DOT":0.00487256,"MEAN_MOTION_DDOT":0},{"OBJECT_NAME":"ISS OBJECT XY","OBJECT_ID":"1998-067XY","EPOCH":"2026-03-28T20:36:18.550656","MEAN_MOTION":15.67599679,"ECCENTRICITY":0.0004276,"INCLINATION":51.627,"RA_OF_ASC_NODE":329.8999,"ARG_OF_PERICENTER":200.6953,"MEAN_ANOMALY":159.3871,"EPHEMERIS_TYPE":0,"CLASSIFICATION_TYPE":"U","NORAD_CAT_ID":66912,"ELEMENT_SET_NO":999,"REV_AT_EPOCH":1815,"BSTAR":0.0010162,"MEAN_MOTION_DOT":0.00114101,"MEAN_MOTION_DDOT":0},{"OBJECT_NAME":"KNACKSAT-2","OBJECT_ID":"1998-067XZ","EPOCH":"2026-03-28T20:15:13.499136","MEAN_MOTION":15.53408087,"ECCENTRICITY":0.0010005,"INCLINATION":51.6323,"RA_OF_ASC_NODE":336.5646,"ARG_OF_PERICENTER":255.1936,"MEAN_ANOMALY":104.7946,"EPHEMERIS_TYPE":0,"CLASSIFICATION_TYPE":"U","NORAD_CAT_ID":67683,"ELEMENT_SET_NO":999,"REV_AT_EPOCH":776,"BSTAR":0.00070231,"MEAN_MOTION_DOT":0.00045155,"MEAN_MOTION_DDOT":0},{"OBJECT_NAME":"CORAL","OBJECT_ID":"1998-067YA","EPOCH":"2026-03-28T17:05:06.868320","MEAN_MOTION":15.57540134,"ECCENTRICITY":0.0012717,"INCLINATION":51.6303,"RA_OF_ASC_NODE":336.434,"ARG_OF_PERICENTER":244.5038,"MEAN_ANOMALY":115.4639,"EPHEMERIS_TYPE":0,"CLASSIFICATION_TYPE":"U","NORAD_CAT_ID":67684,"ELEMENT_SET_NO":999,"REV_AT_EPOCH":775,"BSTAR":0.0013026,"MEAN_MOTION_DOT":0.00098869,"MEAN_MOTION_DDOT":0},{"OBJECT_NAME":"GXIBA-1","OBJECT_ID":"1998-067YB","EPOCH":"2026-03-28T03:02:08.246976","MEAN_MOTION":15.53874924,"ECCENTRICITY":0.00118591,"INCLINATION":51.632,"RA_OF_ASC_NODE":340.0239,"ARG_OF_PERICENTER":249.3772,"MEAN_ANOMALY":110.5947,"EPHEMERIS_TYPE":0,"CLASSIFICATION_TYPE":"U","NORAD_CAT_ID":67685,"ELEMENT_SET_NO":999,"REV_AT_EPOCH":765,"BSTAR":0.00071758857,"MEAN_MOTION_DOT":0.00046994,"MEAN_MOTION_DDOT":0},{"OBJECT_NAME":"UITMSAT-2","OBJECT_ID":"1998-067YC","EPOCH":"2026-03-28T02:41:42.799488","MEAN_MOTION":15.54802779,"ECCENTRICITY":0.00090505,"INCLINATION":51.632,"RA_OF_ASC_NODE":339.9313,"ARG_OF_PERICENTER":220.6186,"MEAN_ANOMALY":139.4131,"EPHEMERIS_TYPE":0,"CLASSIFICATION_TYPE":"U","NORAD_CAT_ID":67686,"ELEMENT_SET_NO":999,"REV_AT_EPOCH":765,"BSTAR":0.0008622031,"MEAN_MOTION_DOT":0.00058539,"MEAN_MOTION_DDOT":0},{"OBJECT_NAME":"HMU-SAT2","OBJECT_ID":"1998-067YD","EPOCH":"2026-03-28T17:02:40.497216","MEAN_MOTION":15.53685811,"ECCENTRICITY":0.0008606,"INCLINATION":51.6326,"RA_OF_ASC_NODE":337.1748,"ARG_OF_PERICENTER":226.2008,"MEAN_ANOMALY":133.8271,"EPHEMERIS_TYPE":0,"CLASSIFICATION_TYPE":"U","NORAD_CAT_ID":67687,"ELEMENT_SET_NO":999,"REV_AT_EPOCH":766,"BSTAR":0.00077992,"MEAN_MOTION_DOT":0.00050719,"MEAN_MOTION_DDOT":0},{"OBJECT_NAME":"LEOPARD","OBJECT_ID":"1998-067YE","EPOCH":"2026-03-28T16:44:13.670016","MEAN_MOTION":15.54451538,"ECCENTRICITY":0.0008791,"INCLINATION":51.6331,"RA_OF_ASC_NODE":337.089,"ARG_OF_PERICENTER":223.7517,"MEAN_ANOMALY":136.2778,"EPHEMERIS_TYPE":0,"CLASSIFICATION_TYPE":"U","NORAD_CAT_ID":67688,"ELEMENT_SET_NO":999,"REV_AT_EPOCH":766,"BSTAR":0.00086636,"MEAN_MOTION_DOT":0.00058058,"MEAN_MOTION_DDOT":0},{"OBJECT_NAME":"CREW DRAGON 12","OBJECT_ID":"2026-031A","EPOCH":"2026-03-28T20:59:21.130368","MEAN_MOTION":15.48616916,"ECCENTRICITY":0.0006219,"INCLINATION":51.6344,"RA_OF_ASC_NODE":337.5169,"ARG_OF_PERICENTER":244.1555,"MEAN_ANOMALY":115.8792,"EPHEMERIS_TYPE":0,"CLASSIFICATION_TYPE":"U","NORAD_CAT_ID":67796,"ELEMENT_SET_NO":999,"REV_AT_EPOCH":55926,"BSTAR":0.00021128,"MEAN_MOTION_DOT":0.00011057,"MEAN_MOTION_DDOT":0},{"OBJECT_NAME":"PROGRESS-MS 33","OBJECT_ID":"2026-058A","EPOCH":"2026-03-28T20:59:21.130368","MEAN_MOTION":15.48616916,"ECCENTRICITY":0.0006219,"INCLINATION":51.6344,"RA_OF_ASC_NODE":337.5169,"ARG_OF_PERICENTER":244.1555,"MEAN_ANOMALY":115.8792,"EPHEMERIS_TYPE":0,"CLASSIFICATION_TYPE":"U","NORAD_CAT_ID":68319,"ELEMENT_SET_NO":999,"REV_AT_EPOCH":77,"BSTAR":0.00021128,"MEAN_MOTION_DOT":0.00011057,"MEAN_MOTION_DDOT":0}]
